STARLINK-30494          
1 57970U 23151G   26068.36049035 -.00001272  00000+0 -35691-4 0  9993
2 57970  43.0027 192.4566 0001155 241.5536 118.5200 15.28417441137406
STARLINK-32807          
1 62845U 25019S   26068.08017430  .00026278  00000+0  96135-3 0  9998
2 62845  42.9955  84.9826 0000983 150.1615 209.9293 15.27569080 62248
